1 33591U 09005A   22027.53281118  .00000055  00000-0  54871-4 0  9996
2 33591  99.1658  58.5890 0013350 220.9570 139.0599 14.12525165668292